FENGYUN 1C DEB          
1 30578U 99025ALU 17345.83395059  .00001634  00000-0  79341-3 0  9991
2 30578  99.0265  40.4447 0057643 191.9539 229.4343 14.18894915557814
